STARLINK-3051
1 49157U 21082AD  26092.60610143  .00004328  00000+0  31290-3 0  9993
2 49157  69.9980 210.8636 0006108 244.6991 115.3539 15.04780499251232
